NORAD_CAT_ID,OBJECT_NAME,OBJECT_TYPE,EPOCH,MEAN_MOTION,ECCENTRICITY,INCLINATION,RA_OF_ASC_NODE,ARG_OF_PERICENTER,MEAN_ANOMALY,BSTAR,MEAN_MOTION_DOT,MEAN_MOTION_DDOT,TLE_LINE0,TLE_LINE1,TLE_LINE2,SEMIMAJOR_AXIS,PERIOD,APOGEE,PERIGEE,DECAYED
52092.0,STARLINK-3716,PAYLOAD,2024-08-07 02:00:32,15.08853443,0.0001566,53.2157,171.075,84.8762,275.2409,0.00071735,0.00011151,0.0,0 STARLINK-3716,1 52092U 22029E   24220.08370730  .00011151  00000-0  71735-3 0  9996,2 52092  53.2157 171.0750 0001566  84.8762 275.2409 15.08853443133150,6917.839,95.437,540.788,538.621,0.0
52092.0,STARLINK-3716,PAYLOAD,2024-08-08 03:26:41,15.08862624,0.0001711,53.2165,166.3168,115.2434,244.8735,0.00033929,5.119e-05,0.0,0 STARLINK-3716,1 52092U 22029E   24221.14353718  .00005119  00000-0  33929-3 0  9991,2 52092  53.2165 166.3168 0001711 115.2434 244.8735 15.08862624133319,6917.811,95.436,540.86,538.493,0.0
52092.0,STARLINK-3716,PAYLOAD,2024-08-08 20:55:56,15.0884828,0.0001495,53.216,163.0471,90.6321,269.4842,0.00013925,1.929e-05,0.0,0 STARLINK-3716,1 52092U 22029E   24221.87217768  .00001929  00000-0  13925-3 0  9994,2 52092  53.2160 163.0471 0001495  90.6321 269.4842 15.08848280133421,6917.855,95.437,540.754,538.686,0.0
52092.0,STARLINK-3716,PAYLOAD,2024-08-09 12:49:47,15.08835465,0.0001416,53.2145,160.07,87.3672,272.7482,0.00020252,2.936e-05,0.0,0 STARLINK-3716,1 52092U 22029E   24222.53458280  .00002936  00000-0  20252-3 0  9994,2 52092  53.2145 160.0700 0001416  87.3672 272.7482 15.08835465133520,6917.894,95.438,540.739,538.78,0.0
52092.0,STARLINK-3716,PAYLOAD,2024-08-10 04:43:38,15.08859764,0.0001238,53.2157,157.0978,104.3336,255.7794,0.00091006,0.00014233,0.0,0 STARLINK-3716,1 52092U 22029E   24223.19697534  .00014233  00000-0  91006-3 0  9992,2 52092  53.2157 157.0978 0001238 104.3336 255.7794 15.08859764133621,6917.82,95.436,540.541,538.829,0.0
52092.0,STARLINK-3716,PAYLOAD,2024-08-10 19:02:07,15.08839604,0.0001305,53.215,154.4216,105.0301,255.0836,0.00016675,2.367e-05,0.0,0 STARLINK-3716,1 52092U 22029E   24223.79314277  .00002367  00000-0  16675-3 0  9992,2 52092  53.2150 154.4216 0001305 105.0301 255.0836 15.08839604133716,6917.882,95.438,540.649,538.844,0.0
52092.0,STARLINK-3716,PAYLOAD,2024-08-11 02:59:02,15.08867639,0.0001404,53.2151,152.9356,93.3651,266.7502,0.0013558,0.00021372,0.0,0 STARLINK-3716,1 52092U 22029E   24224.12433912  .00021372  00000-0  13558-2 0  9991,2 52092  53.2151 152.9356 0001404  93.3651 266.7502 15.08867639133765,6917.796,95.436,540.632,538.69,0.0
52092.0,STARLINK-3716,PAYLOAD,2024-08-11 12:31:22,15.0883442,0.0002286,53.2135,151.1493,81.3638,278.7613,0.0007884,0.0001228,0.0,0 STARLINK-3716,1 52092U 22029E   24224.52178746  .00012280  00000-0  78840-3 0  9990,2 52092  53.2135 151.1493 0002286  81.3638 278.7613 15.08834420133826,6917.897,95.438,541.344,538.181,0.0
52092.0,STARLINK-3716,PAYLOAD,2024-08-11 18:52:55,15.08857309,0.0002695,53.2153,149.9653,73.4875,286.6413,0.0019489,0.00030881,0.0,0 STARLINK-3716,1 52092U 22029E   24224.78674877  .00030881  00000-0  19489-2 0  9994,2 52092  53.2153 149.9653 0002695  73.4875 286.6413 15.08857309133869,6917.827,95.436,541.557,537.828,0.0
52092.0,STARLINK-3716,PAYLOAD,2024-08-12 12:22:08,15.08875414,0.0001514,53.2147,146.6925,97.1055,263.011,0.0065816,0.00106143,0.0,0 STARLINK-3716,1 52092U 22029E   24225.51537896  .00106143  00000-0  65816-2 0  9995,2 52092  53.2147 146.6925 0001514  97.1055 263.0110 15.08875414133972,6917.772,95.435,540.684,538.59,0.0
52092.0,STARLINK-3716,PAYLOAD,2024-08-12 18:43:41,15.08900468,0.0002958,53.2148,145.5014,96.935,263.1978,0.0052639,0.00084638,0.0,0 STARLINK-3716,1 52092U 22029E   24225.78033736  .00084638  00000-0  52639-2 0  9991,2 52092  53.2148 145.5014 0002958  96.9350 263.1978 15.08900468134015,6917.696,95.434,541.607,537.514,0.0
52092.0,STARLINK-3716,PAYLOAD,2024-08-13 01:05:13,15.08824441,0.0001691,53.2142,144.3103,96.3709,263.7476,-0.0013503,-0.00021705,0.0,0 STARLINK-3716,1 52092U 22029E   24226.04529760 -.00021705  00000-0 -13503-2 0  9993,2 52092  53.2142 144.3103 0001691  96.3709 263.7476 15.08824441134059,6917.928,95.439,540.963,538.623,0.0
52092.0,STARLINK-3716,PAYLOAD,2024-08-13 12:12:57,15.08764015,0.0001652,53.2143,142.231,95.037,265.0811,-0.0010003,-0.00016139,0.0,0 STARLINK-3716,1 52092U 22029E   24226.50900368 -.00016139  00000-0 -10003-2 0  9998,2 52092  53.2143 142.2310 0001652  95.0370 265.0811 15.08764015134120,6918.113,95.442,541.121,538.835,0.0
52092.0,STARLINK-3716,PAYLOAD,2024-08-13 18:34:31,15.08784936,0.0001532,53.2141,141.0416,85.1457,274.971,0.0021529,0.0003409,0.0,0 STARLINK-3716,1 52092U 22029E   24226.77397722  .00034090  00000-0  21529-2 0  9990,2 52092  53.2141 141.0416 0001532  85.1457 274.9710 15.08784936134160,6918.049,95.441,540.974,538.854,0.0
52092.0,STARLINK-3716,PAYLOAD,2024-08-14 04:06:50,15.08906526,0.0001447,53.2159,139.2625,87.9074,272.2084,0.0084833,0.00137623,0.0,0 STARLINK-3716,1 52092U 22029E   24227.17141343  .00137623  00000-0  84833-2 0  9994,2 52092  53.2159 139.2625 0001447  87.9074 272.2084 15.08906526134223,6917.677,95.433,540.543,538.541,0.0
52092.0,STARLINK-3716,PAYLOAD,2024-08-14 21:36:03,15.08904282,0.0001341,53.2155,135.987,97.8211,262.2933,0.0028237,0.00045018,0.0,0 STARLINK-3716,1 52092U 22029E   24227.90003950  .00045018  00000-0  28237-2 0  9998,2 52092  53.2155 135.9870 0001341  97.8211 262.2933 15.08904282134331,6917.684,95.433,540.477,538.621,0.0
52092.0,STARLINK-3716,PAYLOAD,2024-08-15 05:32:58,15.08910038,0.000131,53.2146,134.4975,63.5731,296.5395,0.0018722,0.00029691,0.0,0 STARLINK-3716,1 52092U 22029E   24228.23122693  .00029691  00000-0  18722-2 0  9998,2 52092  53.2146 134.4975 0001310  63.5731 296.5395 15.08910038134387,6917.666,95.433,540.438,538.625,0.0
52092.0,STARLINK-3716,PAYLOAD,2024-08-15 10:19:07,15.08843265,0.0001565,53.215,133.6068,71.3065,288.8097,-0.0013578,-0.00021834,0.0,0 STARLINK-3716,1 52092U 22029E   24228.42995176 -.00021834  00000-0 -13578-2 0  9990,2 52092  53.2150 133.6068 0001565  71.3065 288.8097 15.08843265134419,6917.87,95.437,540.818,538.653,0.0
52092.0,STARLINK-3716,PAYLOAD,2024-08-15 21:26:49,15.08841518,0.0001211,53.2156,131.525,74.4608,285.6517,0.00053676,8.265e-05,0.0,0 STARLINK-3716,1 52092U 22029E   24228.89363264  .00008265  00000-0  53676-3 0  9993,2 52092  53.2156 131.5250 0001211  74.4608 285.6517 15.08841518134488,6917.876,95.437,540.579,538.903,0.0
52092.0,STARLINK-3716,PAYLOAD,2024-08-16 00:37:36,15.08851755,0.0001187,53.2155,130.9331,89.4206,270.6922,0.0012354,0.00019434,0.0,0 STARLINK-3716,1 52092U 22029E   24229.02611146  .00019434  00000-0  12354-2 0  9991,2 52092  53.2155 130.9331 0001187  89.4206 270.6922 15.08851755134503,6917.844,95.437,540.531,538.888,0.0
52092.0,STARLINK-3716,PAYLOAD,2024-08-16 21:17:36,15.08860065,0.0001223,53.2154,127.0697,103.514,256.5989,0.0014958,0.00023611,0.0,0 STARLINK-3716,1 52092U 22029E   24229.88723101  .00023611  00000-0  14958-2 0  9994,2 52092  53.2154 127.0697 0001223 103.5140 256.5989 15.08860065134634,6917.819,95.436,540.53,538.838,0.0
52092.0,STARLINK-3716,PAYLOAD,2024-08-17 03:39:08,15.08864985,0.000117,53.2151,125.8779,89.3962,270.7164,0.00114,0.00017914,0.0,0 STARLINK-3716,1 52092U 22029E   24230.15218746  .00017914  00000-0  11400-2 0  9998,2 52092  53.2151 125.8779 0001170  89.3962 270.7164 15.08864985134674,6917.804,95.436,540.478,538.86,0.0
52092.0,STARLINK-3716,PAYLOAD,2024-08-18 01:54:33,15.08840763,0.000188,53.2152,121.715,141.3559,218.7568,0.00078252,0.00012188,0.0,0 STARLINK-3716,1 52092U 22029E   24231.07955324  .00012188  00000-0  78252-3 0  9997,2 52092  53.2152 121.7150 0001880 141.3559 218.7568 15.08840763134816,6917.878,95.438,541.044,538.442,0.0
52092.0,STARLINK-3716,PAYLOAD,2024-08-18 22:34:33,15.08861045,0.0001546,53.216,117.8453,126.6926,233.4208,0.00088008,0.00013754,0.0,0 STARLINK-3716,1 52092U 22029E   24231.94066916  .00013754  00000-0  88008-3 0  9993,2 52092  53.2160 117.8453 0001546 126.6926 233.4208 15.08861045134945,6917.816,95.436,540.751,538.612,0.0
52092.0,STARLINK-3716,PAYLOAD,2024-08-19 09:42:15,15.08844537,0.0001476,53.2163,115.7558,129.5127,230.5996,1.5753e-05,-3.7e-07,0.0,0 STARLINK-3716,1 52092U 22029E   24232.40434886 -.00000037  00000-0  15753-4 0  9999,2 52092  53.2163 115.7558 0001476 129.5127 230.5996 15.08844537135016,6917.867,95.437,540.753,538.71,0.0
52092.0,STARLINK-3716,PAYLOAD,2024-08-19 20:49:58,15.08830443,0.0001481,53.2156,113.6869,85.0239,275.0922,-7.7638e-05,-1.523e-05,0.0,0 STARLINK-3716,1 52092U 22029E   24232.86803717 -.00001523  00000-0 -77638-4 0  9994,2 52092  53.2156 113.6869 0001481  85.0239 275.0922 15.08830443135087,6917.91,95.438,540.799,538.75,0.0
52092.0,STARLINK-3716,PAYLOAD,2024-08-20 01:36:07,15.08837522,0.0001491,53.2158,112.7932,95.0541,265.0621,0.00055384,8.537e-05,0.0,0 STARLINK-3716,1 52092U 22029E   24233.06675773  .00008537  00000-0  55384-3 0  9999,2 52092  53.2158 112.7932 0001491  95.0541 265.0621 15.08837522135112,6917.888,95.438,540.784,538.722,0.0
52092.0,STARLINK-3716,PAYLOAD,2024-08-21 01:26:54,15.08866694,0.0001475,53.2153,108.3315,89.9842,270.1319,0.0011668,0.00018344,0.0,0 STARLINK-3716,1 52092U 22029E   24234.06035298  .00018344  00000-0  11668-2 0  9995,2 52092  53.2153 108.3315 0001475  89.9842 270.1319 15.08866694135260,6917.799,95.436,540.684,538.643,0.0
52092.0,STARLINK-3716,PAYLOAD,2024-08-21 20:31:32,15.08843512,0.0001178,53.2155,104.7631,87.0464,273.0663,0.00033398,5.032e-05,0.0,0 STARLINK-3716,1 52092U 22029E   24234.85523686  .00005032  00000-0  33398-3 0  9990,2 52092  53.2155 104.7631 0001178  87.0464 273.0663 15.08843512135383,6917.87,95.437,540.55,538.92,0.0
52092.0,STARLINK-3716,PAYLOAD,2024-08-21 22:06:55,15.08843922,0.0001328,53.2155,104.465,102.9235,257.1906,0.00033692,5.079e-05,0.0,0 STARLINK-3716,1 52092U 22029E   24234.92147613  .00005079  00000-0  33692-3 0  9998,2 52092  53.2155 104.4650 0001328 102.9235 257.1906 15.08843922135390,6917.868,95.437,540.652,538.815,0.0
